FLOCK 4G-27             
1 62641U 25009AJ  26068.75406453  .00012587  00000+0  47455-3 0  9991
2 62641  97.3976 150.8631 0000756 322.4974  37.6212 15.27199247 63710
FLOCK 4G-4              
1 62659U 25009BC  26068.75333732  .00011866  00000+0  45294-3 0  9997
2 62659  97.3994 150.7963 0001598 343.4316  16.6870 15.26803327121323
